H1 CPF  1  DGF 2022 05 03 11  6231 larets     NONE      
H2   304206 5557    27944 2022 05 03 00 00 00 2022 05 10 00 00 00    30 1 1  0 0 0
H5  0.0650
H9
10 0 59704  75600.000000  0      -1885612.546      -6510220.587      -2021164.334
10 0 59704  75630.000000  0      -1913309.419      -6432688.421      -2233519.507
10 0 59704  75660.000000  0      -1938720.933      -6348545.649      -2443603.067
10 0 59704  75690.000000  0      -1961793.272      -6257889.149      -2651202.038
10 0 59704  75720.000000  0      -1982475.440      -6160822.575      -2856106.099
10 0 59704  75750.000000  0      -2000719.340      -6057456.229      -3058107.798
10 0 59704  75780.000000  0      -2016479.847      -5947906.931      -3257002.761
10 0 59704  75810.000000  0      -2029714.881      -5832297.872      -3452589.894
10 0 59704  75840.000000  0      -2040385.469      -5710758.467      -3644671.583
10 0 59704  75870.000000  0      -2048455.812      -5583424.202      -3833053.893
10 0 59704  75900.000000  0      -2053893.338      -5450436.470      -4017546.753
10 0 59704  75930.000000  0      -2056668.760      -5311942.411      -4197964.144
10 0 59704  75960.000000  0      -2056756.127      -5168094.734      -4374124.278
10 0 59704  75990.000000  0      -2054132.865      -5019051.549      -4545849.775
10 0 59704  76020.000000  0      -2048779.825      -4864976.179      -4712967.836
10 0 59704  76050.000000  0      -2040681.318      -4706036.980      -4875310.404
10 0 59704  76080.000000  0      -2029825.150      -4542407.148      -5032714.327
10 0 59704  76110.000000  0      -2016202.649      -4374264.526      -5185021.511
10 0 59704  76140.000000  0      -1999808.693      -4201791.406      -5332079.073
10 0 59704  76170.000000  0      -1980641.729      -4025174.328      -5473739.483
10 0 59704  76200.000000  0      -1958703.792      -3844603.877      -5609860.702
10 0 59704  76230.000000  0      -1934000.513      -3660274.467      -5740306.317
10 0 59704  76260.000000  0      -1906541.131      -3472384.140      -5864945.664
10 0 59704  76290.000000  0      -1876338.496      -3281134.341      -5983653.958
10 0 59704  76320.000000  0      -1843409.065      -3086729.707      -6096312.397
10 0 59704  76350.000000  0      -1807772.898      -2889377.843      -6202808.279
10 0 59704  76380.000000  0      -1769453.649      -2689289.103      -6303035.099
10 0 59704  76410.000000  0      -1728478.552      -2486676.364      -6396892.644
10 0 59704  76440.000000  0      -1684878.402      -2281754.807      -6484287.087
10 0 59704  76470.000000  0      -1638687.535      -2074741.685      -6565131.064
10 0 59704  76500.000000  0      -1589943.803      -1865856.104      -6639343.763
10 0 59704  76530.000000  0      -1538688.540      -1655318.789      -6706850.985
10 0 59704  76560.000000  0      -1484966.535      -1443351.858      -6767585.219
10 0 59704  76590.000000  0      -1428825.984      -1230178.592      -6821485.696
10 0 59704  76620.000000  0      -1370318.461      -1016023.207      -6868498.447
10 0 59704  76650.000000  0      -1309498.863       -801110.622      -6908576.347
10 0 59704  76680.000000  0      -1246425.362       -585666.232      -6941679.161
10 0 59704  76710.000000  0      -1181159.351       -369915.677      -6967773.578
10 0 59704  76740.000000  0      -1113765.386       -154084.614      -6986833.243
10 0 59704  76770.000000  0      -1044311.120         61601.507      -6998838.775
10 0 59704  76800.000000  0       -972867.242        276917.674      -7003777.797
10 0 59704  76830.000000  0       -899507.406        491639.539      -7001644.942
10 0 59704  76860.000000  0       -824308.155        705543.648      -6992441.862
10 0 59704  76890.000000  0       -747348.848        918407.664      -6976177.229
10 0 59704  76920.000000  0       -668711.580       1130010.597      -6952866.723
10 0 59704  76950.000000  0       -588481.094       1340133.014      -6922533.019
10 0 59704  76980.000000  0       -506744.701       1548557.264      -6885205.778
10 0 59704  77010.000000  0       -423592.189       1755067.702      -6840921.622
10 0 59704  77040.000000  0       -339115.725       1959450.902      -6789724.107
10 0 59704  77070.000000  0       -253409.759       2161495.878      -6731663.686
10 0 59704  77100.000000  0       -166570.922       2360994.296      -6666797.668
10 0 59704  77130.000000  0        -78697.921       2557740.689      -6595190.174
10 0 59704  77160.000000  0         10108.568       2751532.665      -6516912.082
10 0 59704  77190.000000  0         99746.014       2942171.118      -6432040.963
10 0 59704  77220.000000  0        190110.144       3129460.430      -6340661.016
10 0 59704  77250.000000  0        281095.060       3313208.674      -6242862.988
10 0 59704  77280.000000  0        372593.358       3493227.804      -6138744.096
10 0 59704  77310.000000  0        464496.247       3669333.852      -6028407.945
10 0 59704  77340.000000  0        556693.674       3841347.114      -5911964.432
10 0 59704  77370.000000  0        649074.452       4009092.343      -5789529.659
10 0 59704  77400.000000  0        741526.387       4172398.927      -5661225.817
10 0 59704  77430.000000  0        833936.412       4331101.071      -5527181.085
10 0 59704  77460.000000  0        926190.720       4485037.968      -5387529.514
10 0 59704  77490.000000  0       1018174.898       4634053.978      -5242410.898
10 0 59704  77520.000000  0       1109774.065       4777998.785      -5091970.654
10 0 59704  77550.000000  0       1200873.014       4916727.564      -4936359.677
10 0 59704  77580.000000  0       1291356.352       5050101.130      -4775734.203
10 0 59704  77610.000000  0       1381108.640       5177986.093      -4610255.659
10 0 59704  77640.000000  0       1470014.538       5300254.995      -4440090.510
10 0 59704  77670.000000  0       1557958.947       5416786.446      -4265410.102
10 0 59704  77700.000000  0       1644827.156       5527465.260      -4086390.492
10 0 59704  77730.000000  0       1730504.986       5632182.578      -3903212.289
10 0 59704  77760.000000  0       1814878.936       5730835.985      -3716060.468
10 0 59704  77790.000000  0       1897836.329       5823329.623      -3525124.195
10 0 59704  77820.000000  0       1979265.458       5909574.300      -3330596.642
10 0 59704  77850.000000  0       2059055.736       5989487.584      -3132674.790
10 0 59704  77880.000000  0       2137097.836       6062993.896      -2931559.239
10 0 59704  77910.000000  0       2213283.842       6130024.597      -2727454.003
10 0 59704  77940.000000  0       2287507.392       6190518.056      -2520566.303
10 0 59704  77970.000000  0       2359663.821       6244419.727      -2311106.360
10 0 59704  78000.000000  0       2429650.304       6291682.202      -2099287.178
10 0 59704  78030.000000  0       2497365.996       6332265.268      -1885324.325
10 0 59704  78060.000000  0       2562712.174       6366135.947      -1669435.710
10 0 59704  78090.000000  0       2625592.370       6393268.533      -1451841.361
10 0 59704  78120.000000  0       2685912.509       6413644.614      -1232763.188
10 0 59704  78150.000000  0       2743581.040       6427253.094      -1012424.761
10 0 59704  78180.000000  0       2798509.068       6434090.199       -791051.070
10 0 59704  78210.000000  0       2850610.479       6434159.477       -568868.291
10 0 59704  78240.000000  0       2899802.066       6427471.790       -346103.549
10 0 59704  78270.000000  0       2946003.649       6414045.296       -122984.678
10 0 59704  78300.000000  0       2989138.192       6393905.424        100260.017
10 0 59704  78330.000000  0       3029131.920       6367084.840        323402.002
10 0 59704  78360.000000  0       3065914.428       6333623.403        546212.755
10 0 59704  78390.000000  0       3099418.789       6293568.119        768464.008
10 0 59704  78420.000000  0       3129581.657       6246973.076        989927.990
10 0 59704  78450.000000  0       3156343.363       6193899.381       1210377.668
10 0 59704  78480.000000  0       3179648.014       6134415.080       1429586.994
10 0 59704  78510.000000  0       3199443.575       6068595.078       1647331.138
10 0 59704  78540.000000  0       3215681.964       5996521.038       1863386.730
10 0 59704  78570.000000  0       3228319.124       5918281.289       2077532.101
10 0 59704  78600.000000  0       3237315.101       5833970.714       2289547.514
10 0 59704  78630.000000  0       3242634.119       5743690.632       2499215.405
10 0 59704  78660.000000  0       3244244.639       5647548.678       2706320.608
10 0 59704  78690.000000  0       3242119.421       5545658.663       2910650.591
10 0 59704  78720.000000  0       3236235.580       5438140.444       3111995.679
10 0 59704  78750.000000  0       3226574.637       5325119.767       3310149.269
10 0 59704  78780.000000  0       3213122.562       5206728.123       3504908.052
10 0 59704  78810.000000  0       3195869.816       5083102.593       3696072.229
10 0 59704  78840.000000  0       3174811.383       4954385.680       3883445.718
10 0 59704  78870.000000  0       3149946.794       4820725.144       4066836.373
10 0 59704  78900.000000  0       3121280.147       4682273.815       4246056.184
10 0 59704  78930.000000  0       3088820.120       4539189.413       4420921.474
10 0 59704  78960.000000  0       3052579.972       4391634.356       4591253.089
10 0 59704  78990.000000  0       3012577.548       4239775.561       4756876.580
10 0 59704  79020.000000  0       2968835.280       4083784.255       4917622.374
10 0 59704  79050.000000  0       2921380.176       3923835.770       5073325.953
10 0 59704  79080.000000  0       2870243.809       3760109.346       5223828.018
10 0 59704  79110.000000  0       2815462.296       3592787.914       5368974.655
10 0 59704  79140.000000  0       2757076.278       3422057.888       5508617.484
10 0 59704  79170.000000  0       2695130.889       3248108.953       5642613.808
99
